STARLINK-2022           
1 47643U 21012Z   24097.60309683  .00002477  00000+0  18511-3 0  9995
2 47643  53.0542 323.4045 0001307  87.0244 273.0895 15.06402606173928
